H1 CPF 01  gfz 2021 02 28 01  5591 tandemx   
H2 1003001  6202 36605    2021 02 28 00 59 42 2021 03 05 00 00 42   120 1 1  0 0 0
H9
10 0 59273  36702.000000  0    -302096.729  -1337542.258  -6757595.823
10 0 59273  36822.000000  0    -733202.864   -530697.058  -6835691.891
10 0 59273  36942.000000  0   -1137348.804    292644.533  -6794601.657
10 0 59273  37062.000000  0   -1507377.143   1117694.125  -6635032.349
10 0 59273  37182.000000  0   -1836973.985   1929508.809  -6359727.989
10 0 59273  37302.000000  0   -2120774.525   2713254.796  -5973427.647
10 0 59273  37422.000000  0   -2354450.560   3454474.416  -5482793.621
10 0 59273  37542.000000  0   -2534777.026   4139351.393  -4896307.514
10 0 59273  37662.000000  0   -2659677.749   4754970.970  -4224135.330
10 0 59273  37782.000000  0   -2728248.100   5289568.761  -3477960.426
10 0 59273  37902.000000  0   -2740753.317   5732761.721  -2670788.237
10 0 59273  38022.000000  0   -2698603.530   6075759.482  -1816726.424
10 0 59273  38142.000000  0   -2604304.836   6311549.389   -930738.955
10 0 59273  38262.000000  0   -2461387.096   6435047.104    -28381.952
10 0 59273  38382.000000  0   -2274311.607   6443214.409    874473.354
10 0 59273  38502.000000  0   -2048357.724   6335136.161   1761931.057
10 0 59273  38622.000000  0   -1789491.083   6112050.224   2618360.993
10 0 59273  38742.000000  0   -1504219.117   5777334.402   3428681.696
10 0 59273  38862.000000  0   -1199437.835   5336451.438   4178631.572
10 0 59273  38982.000000  0    -882273.566   4796853.222   4855024.380
10 0 59273  39102.000000  0    -559920.954   4167844.666   5445982.793
10 0 59273  39222.000000  0    -239483.933   3460414.282   5941143.336
10 0 59273  39342.000000  0      72176.396   2687033.964   6331834.831
10 0 59273  39462.000000  0     368585.266   1861432.145   6611223.866
10 0 59273  39582.000000  0     643786.163    998346.082   6774428.774
10 0 59273  39702.000000  0     892458.494    113256.295   6818599.042
10 0 59273  39822.000000  0    1110019.114   -777890.009   6742961.951
10 0 59273  39942.000000  0    1292706.324  -1658965.920   6548836.379
10 0 59273  40062.000000  0    1437645.157  -2513956.229   6239611.534
10 0 59273  40182.000000  0    1542892.781  -3327249.569   5820691.895
10 0 59273  40302.000000  0    1607462.850  -4083926.212   5299407.305
10 0 59273  40422.000000  0    1631329.233  -4770034.647   4684889.578
10 0 59273  40542.000000  0    1615409.606  -5372854.477   3987919.408
10 0 59273  40662.000000  0    1561528.370  -5881142.364   3220741.402
10 0 59273  40782.000000  0    1472358.668  -6285350.655   2396848.475
10 0 59273  40902.000000  0    1351345.564  -6577814.999   1530743.557
10 0 59273  41022.000000  0    1202612.084  -6752908.546    637680.723
10 0 59273  41142.000000  0    1030850.126  -6807156.670   -266610.308
10 0 59273  41262.000000  0     841197.478  -6739309.313  -1166211.470
10 0 59273  41382.000000  0     639105.650  -6550364.770  -2045307.062
10 0 59273  41502.000000  0     430203.176  -6243547.905  -2888468.572
10 0 59273  41622.000000  0     220157.157  -5824246.115  -3680930.028
10 0 59273  41742.000000  0      14535.928  -5299903.133  -4408848.929
10 0 59273  41862.000000  0    -181323.739  -4679873.199  -5059545.810
10 0 59273  41982.000000  0    -362441.281  -3975242.232  -5621718.745
10 0 59273  42102.000000  0    -524306.295  -3198619.464  -6085630.963
10 0 59273  42222.000000  0    -662979.258  -2363904.632  -6443268.609
10 0 59273  42342.000000  0    -775177.705  -1486035.708  -6688467.560
10 0 59273  42462.000000  0    -858346.426   -580722.557  -6817009.051
10 0 59273  42582.000000  0    -910710.531    335830.573  -6826684.680
10 0 59273  42702.000000  0    -931310.517   1247208.545  -6717328.874
10 0 59273  42822.000000  0    -920019.409   2137071.510  -6490821.358
10 0 59273  42942.000000  0    -877541.600   2989440.292  -6151058.604
10 0 59273  43062.000000  0    -805393.087   3788978.931  -5703895.481
10 0 59273  43182.000000  0    -705863.544   4521269.410  -5157054.219
10 0 59273  43302.000000  0    -581960.588   5173073.807  -4520002.832
10 0 59273  43422.000000  0    -437337.609   5732580.396  -3803802.017
10 0 59273  43542.000000  0    -276205.674   6189626.975  -3020921.729
10 0 59273  43662.000000  0    -103231.105   6535896.775  -2185030.672
10 0 59273  43782.000000  0      76578.904   6765082.727  -1310760.566
10 0 59273  43902.000000  0     258000.210   6873014.733   -413448.991
10 0 59273  44022.000000  0     435722.619   6857745.870    491134.187
10 0 59273  44142.000000  0     604484.370   6719594.730   1387071.540
10 0 59273  44262.000000  0     759205.853   6461141.235   2258587.266
10 0 59273  44382.000000  0     895118.244   6087176.476   3090333.017
10 0 59273  44502.000000  0    1007885.243   5604610.272   3867665.368
10 0 59273  44622.000000  0    1093716.546   5022336.592   4576908.543
10 0 59273  44742.000000  0    1149467.233   4351060.228   5205601.569
10 0 59273  44862.000000  0    1172720.394   3603086.189   5742714.240
10 0 59273  44982.000000  0    1161855.152   2792086.593   6178835.579
10 0 59273  45102.000000  0    1116094.848   1932843.922   6506334.209
10 0 59273  45222.000000  0    1035536.247   1040976.445   6719486.259
10 0 59273  45342.000000  0     921159.219    132651.326   6814568.907
10 0 59273  45462.000000  0     774816.660   -775707.358   6789921.143
10 0 59273  45582.000000  0     599204.427  -1667715.323   6645972.527
10 0 59273  45702.000000  0     397811.665  -2527323.535   6385236.326
10 0 59273  45822.000000  0     174852.286  -3339108.247   6012268.607
10 0 59273  45942.000000  0     -64820.596  -4088549.267   5533590.585
10 0 59273  46062.000000  0    -315815.541  -4762290.910   4957580.321
10 0 59273  46182.000000  0    -572317.780  -5348385.929   4294334.697
10 0 59273  46302.000000  0    -828217.849  -5836518.260   3555497.828
10 0 59273  46422.000000  0   -1077250.162  -6218194.313   2754057.740
10 0 59273  46542.000000  0   -1313137.529  -6486899.995   1904117.604
10 0 59273  46662.000000  0   -1529738.928  -6638221.435   1020645.079
10 0 59273  46782.000000  0   -1721198.259  -6669923.773    119201.294
10 0 59273  46902.000000  0   -1882086.790  -6581984.792   -784342.147
10 0 59273  47022.000000  0   -2007537.390  -6376584.201  -1674091.425
10 0 59273  47142.000000  0   -2093367.489  -6058049.110  -2534418.044
10 0 59273  47262.000000  0   -2136187.789  -5632756.972  -3350240.050
10 0 59273  47382.000000  0   -2133493.564  -5108997.895  -4107290.433
10 0 59273  47502.000000  0   -2083736.282  -4496801.200  -4792365.966
10 0 59273  47622.000000  0   -1986374.589  -3807732.527  -5393552.411
10 0 59273  47742.000000  0   -1841904.161  -3054666.774  -5900423.861
10 0 59273  47862.000000  0   -1651865.826  -2251541.307  -6304214.227
10 0 59273  47982.000000  0   -1418831.613  -1413094.089  -6597957.581
10 0 59273  48102.000000  0   -1146370.301   -554593.504  -6776596.503
10 0 59273  48222.000000  0    -838993.414    308436.053  -6837059.442
10 0 59273  48342.000000  0    -502081.061   1160488.348  -6778307.170
10 0 59273  48462.000000  0    -141789.762   1986346.512  -6601348.416
10 0 59273  48582.000000  0     235055.869   2771347.600  -6309225.145
10 0 59273  48702.000000  0     621088.795   3501639.115  -5906967.846
10 0 59273  48822.000000  0    1008539.800   4164422.077  -5401516.976
10 0 59273  48942.000000  0    1389388.907   4748176.269  -4801614.364
10 0 59273  49062.000000  0    1755527.256   5242866.538  -4117663.950
10 0 59273  49182.000000  0    2098926.023   5640123.769  -3361560.657
10 0 59273  49302.000000  0    2411808.487   5933396.487  -2546491.468
10 0 59273  49422.000000  0    2686822.346   6118070.691  -1686710.203
10 0 59273  49542.000000  0    2917207.803   6191553.398   -797288.423
10 0 59273  49662.000000  0    3096956.476   6153316.052    106152.887
10 0 59273  49782.000000  0    3220956.879   6004896.002   1007723.992
10 0 59273  49902.000000  0    3285123.358   5749857.093   1891553.101
10 0 59273  50022.000000  0    3286504.697   5393710.128   2742074.234
10 0 59273  50142.000000  0    3223369.408   4943793.881   3544309.799
10 0 59273  50262.000000  0    3095266.712   4409119.634   4284140.644
10 0 59273  50382.000000  0    2903059.917   3800185.144   4948559.951
10 0 59273  50502.000000  0    2648929.356   3128759.003   5525903.127
10 0 59273  50622.000000  0    2336350.439   2407645.887   6006047.968
10 0 59273  50742.000000  0    1970046.814   1650437.659   6380587.893
10 0 59273  50862.000000  0    1555916.922    871252.189   6642974.224
10 0 59273  50982.000000  0    1100936.480     84467.914   6788623.337
10 0 59273  51102.000000  0     613039.992   -695540.183   6814991.957
10 0 59273  51222.000000  0     100982.080  -1454663.399   6721620.266
10 0 59273  51342.000000  0    -425819.892  -2179314.529   6510139.083
10 0 59273  51462.000000  0    -957458.954  -2856671.372   6184242.406
10 0 59273  51582.000000  0   -1483722.927  -3474904.045   5749625.076
10 0 59273  51702.000000  0   -1994288.106  -4023383.154   5213889.719
10 0 59273  51822.000000  0   -2478922.313  -4492867.589   4586422.025
10 0 59273  51942.000000  0   -2927692.694  -4875667.628   3878232.303
10 0 59273  52062.000000  0   -3331171.911  -5165778.388   3101764.664
10 0 59273  52182.000000  0   -3680636.982  -5358979.800   2270677.939
10 0 59273  52302.000000  0   -3968257.732  -5452902.114   1399603.533
10 0 59273  52422.000000  0   -4187270.953  -5447054.694    503882.850
10 0 59273  52542.000000  0   -4332134.903  -5342816.629   -400709.959
10 0 59273  52662.000000  0   -4398660.488  -5143389.815  -1298254.579
10 0 59273  52782.000000  0   -4384114.772  -4853714.382  -2172974.462
10 0 59273  52902.000000  0   -4287294.175  -4480348.642  -3009522.084
10 0 59273  53022.000000  0   -4108565.955  -4031318.047  -3793252.834
10 0 59273  53142.000000  0   -3849877.709  -3515938.155  -4510482.083
99
